{"type": "FeatureCollection", "features": [ {"type": "Feature", "properties": {"norad_id": 34529, "name": "IRIDIUM 33 DEB", "group": "iridium-33-debris", "lat": -74.048187718135, "lon": -128.39566802050857, "alt_km": 762.1376828105977, "timestamp": "2025-12-04T21:36:16.257186+00:00", "meta": {"OBJECT_NAME": "IRIDIUM 33 DEB", "OBJECT_ID": "1997-051HW", "EPOCH": "2025-12-04T10:25:29.464320", "MEAN_MOTION": 14.40606025, "ECCENTRICITY": 0.00037971, "INCLINATION": 86.3647, "RA_OF_ASC_NODE": 38.9518, "ARG_OF_PERICENTER": 206.5624, "MEAN_ANOMALY": 153.5381, "EPHEMERIS_TYPE": 0, "CLASSIFICATION_TYPE": "U", "NORAD_CAT_ID": 34529, "ELEMENT_SET_NO": 999, "REV_AT_EPOCH": 88022, "BSTAR": 0.00024439882, "MEAN_MOTION_DOT": 7.98e-06, "MEAN_MOTION_DDOT": 0}, "tle": {"line1": "1 34529U 97051HW  25338.43436880  .00000798  00000+0  24440-3 0  9992", "line2": "2 34529  86.3647  38.9518 0003797 206.5624 153.5381 14.40606025880228"}}, "geometry": {"type": "Point", "coordinates": [-128.39566802050857, -74.048187718135]}}, {"type": "Feature", "properties": {"norad_id": 34538, "name": "IRIDIUM 33 DEB", "group": "iridium-33-debris", "lat": 35.12911710088586, "lon": 11.61527642355534, "alt_km": 729.4324514889513, "timestamp": "2025-12-04T21:36:16.257196+00:00", "meta": {"OBJECT_NAME": "IRIDIUM 33 DEB", "OBJECT_ID": "1997-051JF", "EPOCH": "2025-12-04T07:02:51.254592", "MEAN_MOTION": 14.42571124, "ECCENTRICITY": 0.00338519, "INCLINATION": 86.278, "RA_OF_ASC_NODE": 9.2557, "ARG_OF_PERICENTER": 356.4669, "MEAN_ANOMALY": 130.6671, "EPHEMERIS_TYPE": 0, "CLASSIFICATION_TYPE": "U", "NORAD_CAT_ID": 34538, "ELEMENT_SET_NO": 999, "REV_AT_EPOCH": 87634, "BSTAR": 0.0020099662, "MEAN_MOTION_DOT": 6.735e-05, "MEAN_MOTION_DDOT": 0}, "tle": {"line1": "1 34538U 97051JF  25338.29364878  .00006735  00000+0  20100-2 0  9998", "line2": "2 34538  86.2780   9.2557 0033851 356.4669 130.6671 14.42571124876346"}}, "geometry": {"type": "Point", "coordinates": [11.61527642355534, 35.12911710088586]}}, {"type": "Feature", "properties": {"norad_id": 34540, "name": "IRIDIUM 33 DEB", "group": "iridium-33-debris", "lat": -74.88828123044462, "lon": 145.01907578909194, "alt_km": 648.2938182305597, "timestamp": "2025-12-04T21:36:16.257207+00:00", "meta": {"OBJECT_NAME": "IRIDIUM 33 DEB", "OBJECT_ID": "1997-051JH", "EPOCH": "2025-12-04T09:44:19.454208", "MEAN_MOTION": 14.75040189, "ECCENTRICITY": 0.00149927, "INCLINATION": 86.3094, "RA_OF_ASC_NODE": 311.4162, "ARG_OF_PERICENTER": 189.6254, "MEAN_ANOMALY": 321.8404, "EPHEMERIS_TYPE": 0, "CLASSIFICATION_TYPE": "U", "NORAD_CAT_ID": 34540, "ELEMENT_SET_NO": 999, "REV_AT_EPOCH": 88898, "BSTAR": 0.0040109956, "MEAN_MOTION_DOT": 0.00027148, "MEAN_MOTION_DDOT": 0}, "tle": {"line1": "1 34540U 97051JH  25338.40578072  .00027148  00000+0  40110-2 0  9991", "line2": "2 34540  86.3094 311.4162 0014992 189.6254 321.8404 14.75040189888988"}}, "geometry": {"type": "Point", "coordinates": [145.01907578909194, -74.88828123044462]}}, {"type": "Feature", "properties": {"norad_id": 34648, "name": "IRIDIUM 33 DEB", "group": "iridium-33-debris", "lat": 43.891205457494955, "lon": -71.40827626182231, "alt_km": 829.3362175980428, "timestamp": "2025-12-04T21:36:16.257217+00:00", "meta": {"OBJECT_NAME": "IRIDIUM 33 DEB", "OBJECT_ID": "1997-051JZ", "EPOCH": "2025-12-01T03:11:38.418720", "MEAN_MOTION": 14.1087899, "ECCENTRICITY": 0.01868529, "INCLINATION": 86.3903, "RA_OF_ASC_NODE": 286.6295, "ARG_OF_PERICENTER": 334.6513, "MEAN_ANOMALY": 24.5588, "EPHEMERIS_TYPE": 0, "CLASSIFICATION_TYPE": "U", "NORAD_CAT_ID": 34648, "ELEMENT_SET_NO": 999, "REV_AT_EPOCH": 84797, "BSTAR": 0.0079356223, "MEAN_MOTION_DOT": 0.00016788, "MEAN_MOTION_DDOT": 0}, "tle": {"line1": "1 34648U 97051JZ  25335.13308355  .00016788  00000+0  79356-2 0  9994", "line2": "2 34648  86.3903 286.6295 0186852 334.6513  24.5588 14.10878990847973"}}, "geometry": {"type": "Point", "coordinates": [-71.40827626182231, 43.891205457494955]}}, {"type": "Feature", "properties": {"norad_id": 34651, "name": "IRIDIUM 33 DEB", "group": "iridium-33-debris", "lat": 53.536573896997126, "lon": 148.95801569225088, "alt_km": 903.0231221995236, "timestamp": "2025-12-04T21:36:16.257231+00:00", "meta": {"OBJECT_NAME": "IRIDIUM 33 DEB", "OBJECT_ID": "1997-051KC", "EPOCH": "2025-12-04T11:14:22.767648", "MEAN_MOTION": 14.25597734, "ECCENTRICITY": 0.01418814, "INCLINATION": 86.2823, "RA_OF_ASC_NODE": 144.094, "ARG_OF_PERICENTER": 230.2415, "MEAN_ANOMALY": 128.6209, "EPHEMERIS_TYPE": 0, "CLASSIFICATION_TYPE": "U", "NORAD_CAT_ID": 34651, "ELEMENT_SET_NO": 999, "REV_AT_EPOCH": 85778, "BSTAR": 0.0077267161, "MEAN_MOTION_DOT": 0.00020383, "MEAN_MOTION_DDOT": 0}, "tle": {"line1": "1 34651U 97051KC  25338.46831907  .00020383  00000+0  77267-2 0  9996", "line2": "2 34651  86.2823 144.0940 0141881 230.2415 128.6209 14.25597734857782"}}, "geometry": {"type": "Point", "coordinates": [148.95801569225088, 53.536573896997126]}}, {"type": "Feature", "properties": {"norad_id": 34652, "name": "IRIDIUM 33 DEB", "group": "iridium-33-debris", "lat": 17.54504635980558, "lon": 162.33088352251255, "alt_km": 705.9218707346527, "timestamp": "2025-12-04T21:36:16.257241+00:00", "meta": {"OBJECT_NAME": "IRIDIUM 33 DEB", "OBJECT_ID": "1997-051KD", "EPOCH": "2025-12-02T12:03:44.445600", "MEAN_MOTION": 14.61898676, "ECCENTRICITY": 0.00270627, "INCLINATION": 86.3312, "RA_OF_ASC_NODE": 344.5601, "ARG_OF_PERICENTER": 334.9096, "MEAN_ANOMALY": 177.4047, "EPHEMERIS_TYPE": 0, "CLASSIFICATION_TYPE": "U", "NORAD_CAT_ID": 34652, "ELEMENT_SET_NO": 999, "REV_AT_EPOCH": 88334, "BSTAR": 0.0012168376, "MEAN_MOTION_DOT": 6.139e-05, "MEAN_MOTION_DDOT": 0}, "tle": {"line1": "1 34652U 97051KD  25336.50259775  .00006139  00000+0  12168-2 0  9999", "line2": "2 34652  86.3312 344.5601 0027062 334.9096 177.4047 14.61898676883341"}}, "geometry": {"type": "Point", "coordinates": [162.33088352251255, 17.54504635980558]}}, {"type": "Feature", "properties": {"norad_id": 34690, "name": "IRIDIUM 33 DEB", "group": "iridium-33-debris", "lat": -40.515162249196536, "lon": -136.49967658229664, "alt_km": 724.0207019903655, "timestamp": "2025-12-04T21:36:16.257251+00:00", "meta": {"OBJECT_NAME": "IRIDIUM 33 DEB", "OBJECT_ID": "1997-051KM", "EPOCH": "2025-12-03T11:52:36.056064", "MEAN_MOTION": 14.55037039, "ECCENTRICITY": 0.0011766, "INCLINATION": 86.3793, "RA_OF_ASC_NODE": 41.009, "ARG_OF_PERICENTER": 56.8306, "MEAN_ANOMALY": 7.0908, "EPHEMERIS_TYPE": 0, "CLASSIFICATION_TYPE": "U", "NORAD_CAT_ID": 34690, "ELEMENT_SET_NO": 999, "REV_AT_EPOCH": 87960, "BSTAR": 0.00070543794, "MEAN_MOTION_DOT": 3.062e-05, "MEAN_MOTION_DDOT": 0}, "tle": {"line1": "1 34690U 97051KM  25337.49486176  .00003062  00000+0  70544-3 0  9992", "line2": "2 34690  86.3793  41.0090 0011766  56.8306   7.0908 14.55037039879604"}}, "geometry": {"type": "Point", "coordinates": [-136.49967658229664, -40.515162249196536]}}, {"type": "Feature", "properties": {"norad_id": 34693, "name": "IRIDIUM 33 DEB", "group": "iridium-33-debris", "lat": 54.352986788763815, "lon": -47.1198258571835, "alt_km": 474.2770888599216, "timestamp": "2025-12-04T21:36:16.257262+00:00", "meta": {"OBJECT_NAME": "IRIDIUM 33 DEB", "OBJECT_ID": "1997-051KQ", "EPOCH": "2025-12-04T09:25:40.956960", "MEAN_MOTION": 15.25047681, "ECCENTRICITY": 0.00156481, "INCLINATION": 86.3057, "RA_OF_ASC_NODE": 307.9621, "ARG_OF_PERICENTER": 65.2791, "MEAN_ANOMALY": 85.5707, "EPHEMERIS_TYPE": 0, "CLASSIFICATION_TYPE": "U", "NORAD_CAT_ID": 34693, "ELEMENT_SET_NO": 999, "REV_AT_EPOCH": 88787, "BSTAR": 0.0093370528, "MEAN_MOTION_DOT": 0.00241217, "MEAN_MOTION_DDOT": 0}, "tle": {"line1": "1 34693U 97051KQ  25338.39283515  .00241217  00000+0  93371-2 0  9995", "line2": "2 34693  86.3057 307.9621 0015648  65.2791  85.5707 15.25047681887877"}}, "geometry": {"type": "Point", "coordinates": [-47.1198258571835, 54.352986788763815]}}, {"type": "Feature", "properties": {"norad_id": 34696, "name": "IRIDIUM 33 DEB", "group": "iridium-33-debris", "lat": 83.43684533021812, "lon": 66.60800208777641, "alt_km": 688.7760677396827, "timestamp": "2025-12-04T21:36:16.257303+00:00", "meta": {"OBJECT_NAME": "IRIDIUM 33 DEB", "OBJECT_ID": "1997-051KT", "EPOCH": "2025-12-03T04:28:11.100576", "MEAN_MOTION": 14.64210204, "ECCENTRICITY": 0.00749062, "INCLINATION": 86.1858, "RA_OF_ASC_NODE": 31.9639, "ARG_OF_PERICENTER": 199.8052, "MEAN_ANOMALY": 216.5408, "EPHEMERIS_TYPE": 0, "CLASSIFICATION_TYPE": "U", "NORAD_CAT_ID": 34696, "ELEMENT_SET_NO": 999, "REV_AT_EPOCH": 86533, "BSTAR": 0.0085473115, "MEAN_MOTION_DOT": 0.00047152, "MEAN_MOTION_DDOT": 0}, "tle": {"line1": "1 34696U 97051KT  25337.18623959  .00047152  00000+0  85473-2 0  9990", "line2": "2 34696  86.1858  31.9639 0074906 199.8052 216.5408 14.64210204865332"}}, "geometry": {"type": "Point", "coordinates": [66.60800208777641, 83.43684533021812]}}, {"type": "Feature", "properties": {"norad_id": 34765, "name": "IRIDIUM 33 DEB", "group": "iridium-33-debris", "lat": -58.42268835183644, "lon": 30.14707286068159, "alt_km": 759.3183109948131, "timestamp": "2025-12-04T21:36:16.257317+00:00", "meta": {"OBJECT_NAME": "IRIDIUM 33 DEB", "OBJECT_ID": "1997-051LJ", "EPOCH": "2025-12-04T15:47:27.445920", "MEAN_MOTION": 14.40432843, "ECCENTRICITY": 0.00146806, "INCLINATION": 86.3397, "RA_OF_ASC_NODE": 36.2288, "ARG_OF_PERICENTER": 240.3443, "MEAN_ANOMALY": 245.6527, "EPHEMERIS_TYPE": 0, "CLASSIFICATION_TYPE": "U", "NORAD_CAT_ID": 34765, "ELEMENT_SET_NO": 999, "REV_AT_EPOCH": 87497, "BSTAR": 0.0007737206, "MEAN_MOTION_DOT": 2.479e-05, "MEAN_MOTION_DDOT": 0}, "tle": {"line1": "1 34765U 97051LJ  25338.65795655  .00002479  00000+0  77372-3 0  9996", "line2": "2 34765  86.3397  36.2288 0014680 240.3443 245.6527 14.40432843874970"}}, "geometry": {"type": "Point", "coordinates": [30.14707286068159, -58.42268835183644]}}]}